{
    "links": {
        "self": "http://www.neowsapp.com/rest/v1/neo/54048949?api_key=iIulBulltgU6a56xZRHN4H3l9WmuAYTsLGpBGhQ2"
    },
    "id": "54048949",
    "neo_reference_id": "54048949",
    "name": "(2020 OZ2)",
    "designation": "2020 OZ2",
    "nasa_jpl_url": "http://ssd.jpl.nasa.gov/sbdb.cgi?sstr=54048949",
    "absolute_magnitude_h": 21.475,
    "estimated_diameter": {
        "kilometers": {
            "estimated_diameter_min": 0.1347581303,
            "estimated_diameter_max": 0.3013283398
        },
        "meters": {
            "estimated_diameter_min": 134.7581302594,
            "estimated_diameter_max": 301.3283397808
        },
        "miles": {
            "estimated_diameter_min": 0.0837347942,
            "estimated_diameter_max": 0.1872366918
        },
        "feet": {
            "estimated_diameter_min": 442.1198640803,
            "estimated_diameter_max": 988.6100702865
        }
    },
    "is_potentially_hazardous_asteroid": false,
    "close_approach_data": [
        {
            "close_approach_date": "2009-08-16",
            "close_approach_date_full": "2009-Aug-16 17:26",
            "epoch_date_close_approach": 1250443560000,
            "relative_velocity": {
                "kilometers_per_second": "20.4459242217",
                "kilometers_per_hour": "73605.3271981693",
                "miles_per_hour": "45735.4878915514"
            },
            "miss_distance": {
                "astronomical": "0.3037779615",
                "lunar": "118.1696270235",
                "kilometers": "45444535.993342005",
                "miles": "28237925.256269469"
            },
            "orbiting_body": "Earth"
        },
        {
            "close_approach_date": "2020-08-10",
            "close_approach_date_full": "2020-Aug-10 02:17",
            "epoch_date_close_approach": 1597025820000,
            "relative_velocity": {
                "kilometers_per_second": "24.1666651583",
                "kilometers_per_hour": "86999.994569993",
                "miles_per_hour": "54058.4132926715"
            },
            "miss_distance": {
                "astronomical": "0.1687105289",
                "lunar": "65.6283957421",
                "kilometers": "25238735.770013443",
                "miles": "15682623.1945857934"
            },
            "orbiting_body": "Earth"
        },
        {
            "close_approach_date": "2029-02-09",
            "close_approach_date_full": "2029-Feb-09 13:17",
            "epoch_date_close_approach": 1865337420000,
            "relative_velocity": {
                "kilometers_per_second": "35.5894988299",
                "kilometers_per_hour": "128122.195787613",
                "miles_per_hour": "79610.1499325865"
            },
            "miss_distance": {
                "astronomical": "0.4548812255",
                "lunar": "176.9487967195",
                "kilometers": "68049262.437789685",
                "miles": "42283850.950620253"
            },
            "orbiting_body": "Earth"
        },
        {
            "close_approach_date": "2031-08-03",
            "close_approach_date_full": "2031-Aug-03 07:04",
            "epoch_date_close_approach": 1943507040000,
            "relative_velocity": {
                "kilometers_per_second": "28.5016684283",
                "kilometers_per_hour": "102606.0063418382",
                "miles_per_hour": "63755.3821072383"
            },
            "miss_distance": {
                "astronomical": "0.2449836568",
                "lunar": "95.2986424952",
                "kilometers": "36649033.242091016",
                "miles": "22772653.2746713808"
            },
            "orbiting_body": "Earth"
        }
    ],
    "orbital_data": {
        "orbit_id": "5",
        "orbit_determination_date": "2020-08-12 06:23:04",
        "first_observation_date": "2020-07-16",
        "last_observation_date": "2020-08-11",
        "data_arc_in_days": 26,
        "observations_used": 53,
        "orbit_uncertainty": "7",
        "minimum_orbit_intersection": ".106886",
        "jupiter_tisserand_invariant": "3.421",
        "epoch_osculation": "2459000.5",
        "eccentricity": ".6232840353629422",
        "semi_major_axis": "1.959042907135484",
        "inclination": "37.14449910262731",
        "ascending_node_longitude": "128.0451319705491",
        "orbital_period": "1001.530890616429",
        "perihelion_distance": ".73800273852693",
        "perihelion_argument": "275.0373275557499",
        "aphelion_distance": "3.180083075744039",
        "perihelion_time": "2459130.492569085335",
        "mean_anomaly": "313.2742072070115",
        "mean_motion": ".3594497217938278",
        "equinox": "J2000",
        "orbit_class": {
            "orbit_class_type": "APO",
            "orbit_class_description": "Near-Earth asteroid orbits which cross the Earth’s orbit similar to that of 1862 Apollo",
            "orbit_class_range": "a (semi-major axis) > 1.0 AU; q (perihelion) < 1.017 AU"
        }
    },
    "is_sentry_object": false
}